ENTRYSAT                
1 44429U 98067QP  19256.70884696  .00005216  00000-0  90785-4 0  9991
2 44429  51.6407 281.4836 0003803  22.3216 337.7939 15.52584429 11299
VCC C                   
1 44430U 98067QQ  19256.45302844  .00006654  00000-0  11366-3 0  9999
2 44430  51.6409 282.7756 0004055  29.4401 330.6816 15.52601089 10075
VCC B                   
1 44431U 98067QR  19256.45557622  .00004620  00000-0  81695-4 0  9990
2 44431  51.6406 282.7916 0003980  27.6771 332.4430 15.52435835 11197
